NORAD_CAT_ID,OBJECT_NAME,OBJECT_TYPE,EPOCH,MEAN_MOTION,ECCENTRICITY,INCLINATION,RA_OF_ASC_NODE,ARG_OF_PERICENTER,MEAN_ANOMALY,BSTAR,MEAN_MOTION_DOT,MEAN_MOTION_DDOT,TLE_LINE0,TLE_LINE1,TLE_LINE2,SEMIMAJOR_AXIS,PERIOD,APOGEE,PERIGEE,DECAYED
51741.0,STARLINK-3520,PAYLOAD,2023-08-31 23:18:39,15.08840255,0.0001253,53.2161,132.3956,82.933,277.1804,3.4893e-05,2.67e-06,0.0,0 STARLINK-3520,1 51741U 22016AD  23243.97128949  .00000267  00000-0  34893-4 0  9998,2 51741  53.2161 132.3956 0001253  82.9330 277.1804 15.08840255 85676,6917.88,95.438,540.611,538.878,0.0
51741.0,STARLINK-3520,PAYLOAD,2023-09-01 16:47:53,15.0883818,0.0001238,53.217,129.1228,90.4574,269.656,1.9442e-05,2.2e-07,0.0,0 STARLINK-3520,1 51741U 22016AD  23244.69993053  .00000022  00000-0  19442-4 0  9996,2 51741  53.2170 129.1228 0001238  90.4574 269.6560 15.08838180 84677,6917.886,95.438,540.607,538.895,0.0
51741.0,STARLINK-3520,PAYLOAD,2023-09-02 02:20:12,15.0885262,0.0001528,53.2154,127.3411,87.1774,272.9393,-3.9104e-05,-9.11e-06,0.0,0 STARLINK-3520,1 51741U 22016AD  23245.09736416 -.00000911  00000-0 -39104-4 0  9995,2 51741  53.2154 127.3411 0001528  87.1774 272.9393 15.08852620 85846,6917.842,95.437,540.764,538.65,0.0
51741.0,STARLINK-3520,PAYLOAD,2023-09-02 08:41:45,15.0883586,0.0001449,53.2164,126.1509,84.8121,275.3037,2.7457e-05,1.49e-06,0.0,0 STARLINK-3520,1 51741U 22016AD  23245.36233291  .00000149  00000-0  27457-4 0  9997,2 51741  53.2164 126.1509 0001449  84.8121 275.3037 15.08835860 85887,6917.893,95.438,540.76,538.756,0.0
51741.0,STARLINK-3520,PAYLOAD,2023-09-02 19:49:27,15.08834492,0.0001408,53.2183,124.0686,90.6195,269.4959,3.3559e-05,2.46e-06,0.0,0 STARLINK-3520,1 51741U 22016AD  23245.82601409  .00000246  00000-0  33559-4 0  9996,2 51741  53.2183 124.0686 0001408  90.6195 269.4959 15.08834492 84844,6917.897,95.438,540.736,538.788,0.0
51741.0,STARLINK-3520,PAYLOAD,2023-09-03 08:32:32,15.08839363,0.0001495,53.2167,121.6932,95.7656,264.3507,6.7676e-05,7.89e-06,0.0,0 STARLINK-3520,1 51741U 22016AD  23246.35593134  .00000789  00000-0  67676-4 0  9999,2 51741  53.2167 121.6932 0001495  95.7656 264.3507 15.08839363 84921,6917.882,95.438,540.782,538.713,0.0
51741.0,STARLINK-3520,PAYLOAD,2023-09-03 22:51:01,15.08835057,0.0001445,53.2174,119.0164,94.8037,265.312,-2.9174e-05,-7.52e-06,0.0,0 STARLINK-3520,1 51741U 22016AD  23246.95209800 -.00000752  00000-0 -29174-4 0  9992,2 51741  53.2174 119.0164 0001445  94.8037 265.3120 15.08835057 86127,6917.895,95.438,540.76,538.761,0.0
51741.0,STARLINK-3520,PAYLOAD,2023-09-04 08:23:19,15.08840678,0.0001407,53.2174,117.2317,90.0228,270.0925,-2.3068e-05,-6.55e-06,0.0,0 STARLINK-3520,1 51741U 22016AD  23247.34953489 -.00000655  00000-0 -23068-4 0  9993,2 51741  53.2174 117.2317 0001407  90.0228 270.0925 15.08840678 85079,6917.878,95.438,540.717,538.77,0.0
51741.0,STARLINK-3520,PAYLOAD,2023-09-05 00:17:11,15.08841122,0.0001335,53.2166,114.2573,89.5009,270.6136,1.7135e-05,-1.5e-07,0.0,0 STARLINK-3520,1 51741U 22016AD  23248.01193613 -.00000015  00000-0  17135-4 0  9990,2 51741  53.2166 114.2573 0001335  89.5009 270.6136 15.08841122 86280,6917.877,95.437,540.665,538.818,0.0
51741.0,STARLINK-3520,PAYLOAD,2023-09-06 00:07:57,15.08849126,0.0001296,53.2168,109.7962,84.6766,275.4375,0.00013864,1.92e-05,0.0,0 STARLINK-3520,1 51741U 22016AD  23249.00552721  .00001920  00000-0  13864-3 0  9998,2 51741  53.2168 109.7962 0001296  84.6766 275.4375 15.08849126 86432,6917.852,95.437,540.614,538.821,0.0
51741.0,STARLINK-3520,PAYLOAD,2023-09-06 20:47:59,15.08838218,0.0001695,53.2165,105.9277,95.4062,264.7124,5.9149e-05,6.53e-06,0.0,0 STARLINK-3520,1 51741U 22016AD  23249.86665664  .00000653  00000-0  59149-4 0  9992,2 51741  53.2165 105.9277 0001695  95.4062 264.7124 15.08838218 85452,6917.886,95.438,540.923,538.578,0.0
51741.0,STARLINK-3520,PAYLOAD,2023-09-06 23:58:44,15.08845067,0.00014,53.2166,105.3341,95.9646,264.1505,7.0691e-05,8.37e-06,0.0,0 STARLINK-3520,1 51741U 22016AD  23249.99913121  .00000837  00000-0  70691-4 0  9999,2 51741  53.2166 105.3341 0001400  95.9646 264.1505 15.08845067 86588,6917.865,95.437,540.698,538.761,0.0
51741.0,STARLINK-3520,PAYLOAD,2023-09-07 20:38:45,15.08845407,0.0001656,53.2163,101.467,102.3914,257.7263,-3.6109e-05,-8.63e-06,0.0,0 STARLINK-3520,1 51741U 22016AD  23250.86025258 -.00000863  00000-0 -36109-4 0  9999,2 51741  53.2163 101.4670 0001656 102.3914 257.7263 15.08845407 85600,6917.864,95.437,540.874,538.583,0.0
51741.0,STARLINK-3520,PAYLOAD,2023-09-07 22:14:10,15.08753991,0.0002021,53.2162,101.1701,117.5603,242.5594,0.0011804,0.00018504,0.0,0 STARLINK-3520,1 51741U 22016AD  23250.92651050  .00018504  00000-0  11804-2 0  9993,2 51741  53.2162 101.1701 0002021 117.5603 242.5594 15.08753991 86720,6918.143,95.443,541.406,538.61,0.0
51741.0,STARLINK-3520,PAYLOAD,2023-09-08 18:54:10,15.08837899,0.000158,53.2166,97.305,98.0352,262.082,-1.5576e-05,-5.36e-06,0.0,0 STARLINK-3520,1 51741U 22016AD  23251.78761710 -.00000536  00000-0 -15576-4 0  9993,2 51741  53.2166  97.3050 0001580  98.0352 262.0820 15.08837899 86853,6917.887,95.438,540.845,538.659,0.0
51741.0,STARLINK-3520,PAYLOAD,2023-09-08 20:29:33,15.08837896,0.0001434,53.2171,97.0089,87.5176,272.598,-2.2209e-05,-6.41e-06,0.0,0 STARLINK-3520,1 51741U 22016AD  23251.85385778 -.00000641  00000-0 -22209-4 0  9995,2 51741  53.2171  97.0089 0001434  87.5176 272.5980 15.08837896 85751,6917.887,95.438,540.744,538.76,0.0
51741.0,STARLINK-3520,PAYLOAD,2023-09-08 23:40:19,15.08838769,0.0001435,53.2171,96.4141,87.2317,272.8839,-1.4786e-05,-5.23e-06,0.0,0 STARLINK-3520,1 51741U 22016AD  23251.98633703 -.00000523  00000-0 -14786-4 0  9993,2 51741  53.2171  96.4141 0001435  87.2317 272.8839 15.08838769 85776,6917.884,95.438,540.742,538.756,0.0
51741.0,STARLINK-3520,PAYLOAD,2023-09-09 20:20:19,15.0884084,0.000142,53.2175,92.5485,86.5319,273.5835,0.00010155,1.329e-05,0.0,0 STARLINK-3520,1 51741U 22016AD  23252.84745316  .00001329  00000-0  10155-3 0  9991,2 51741  53.2175  92.5485 0001420  86.5319 273.5835 15.08840840 87012,6917.878,95.438,540.725,538.76,0.0
51741.0,STARLINK-3520,PAYLOAD,2023-09-10 05:52:39,15.08836992,0.0001369,53.2173,90.7641,87.56,272.5549,5.8701e-05,6.46e-06,0.0,0 STARLINK-3520,1 51741U 22016AD  23253.24489750  .00000646  00000-0  58701-4 0  9994,2 51741  53.2173  90.7641 0001369  87.5600 272.5549 15.08836992 87070,6917.89,95.438,540.702,538.808,0.0
51741.0,STARLINK-3520,PAYLOAD,2023-09-10 13:49:35,15.08833326,0.000141,53.2172,89.2778,86.5741,273.5412,2.2461e-05,6.9e-07,0.0,0 STARLINK-3520,1 51741U 22016AD  23253.57610232  .00000069  00000-0  22461-4 0  9994,2 51741  53.2172  89.2778 0001410  86.5741 273.5412 15.08833326 86016,6917.901,95.438,540.741,538.79,0.0
51741.0,STARLINK-3520,PAYLOAD,2023-09-11 13:40:22,15.0883845,0.0001302,53.2187,84.8189,94.8903,265.2237,-2.7388e-05,-7.24e-06,0.0,0 STARLINK-3520,1 51741U 22016AD  23254.56970311 -.00000724  00000-0 -27388-4 0  9994,2 51741  53.2187  84.8189 0001302  94.8903 265.2237 15.08838450 86163,6917.885,95.438,540.651,538.849,0.0
51741.0,STARLINK-3520,PAYLOAD,2023-09-11 16:51:08,15.08839006,0.0001329,53.2188,84.2245,98.154,261.9603,-2.0178e-05,-6.09e-06,0.0,0 STARLINK-3520,1 51741U 22016AD  23254.70218261 -.00000609  00000-0 -20178-4 0  9991,2 51741  53.2188  84.2245 0001329  98.1540 261.9603 15.08839006 87297,6917.883,95.438,540.668,538.829,0.0
51741.0,STARLINK-3520,PAYLOAD,2023-09-12 05:34:13,15.08838598,0.0001315,53.2186,81.8455,93.6998,266.4144,-2.3346e-05,-6.59e-06,0.0,0 STARLINK-3520,1 51741U 22016AD  23255.23210355 -.00000659  00000-0 -23346-4 0  9991,2 51741  53.2186  81.8455 0001315  93.6998 266.4144 15.08838598 86264,6917.885,95.438,540.659,538.84,0.0
51741.0,STARLINK-3520,PAYLOAD,2023-09-12 18:17:18,15.08835995,0.0001354,53.2185,79.4666,95.6235,264.4911,3.785e-05,3.14e-06,0.0,0 STARLINK-3520,1 51741U 22016AD  23255.76202541  .00000314  00000-0  37850-4 0  9998,2 51741  53.2185  79.4666 0001354  95.6235 264.4911 15.08835995 87459,6917.893,95.438,540.694,538.821,0.0
51741.0,STARLINK-3520,PAYLOAD,2023-09-12 19:52:41,15.08839259,0.000135,53.2185,79.1692,94.7447,265.3699,6.4285e-05,7.35e-06,0.0,0 STARLINK-3520,1 51741U 22016AD  23255.82826287  .00000735  00000-0  64285-4 0  9993,2 51741  53.2185  79.1692 0001350  94.7447 265.3699 15.08839259 86354,6917.883,95.438,540.682,538.814,0.0
51741.0,STARLINK-3520,PAYLOAD,2023-09-13 05:25:00,15.08843127,0.0001305,53.2179,77.384,85.7851,274.329,6.9743e-05,8.22e-06,0.0,0 STARLINK-3520,1 51741U 22016AD  23256.22570069  .00000822  00000-0  69743-4 0  9993,2 51741  53.2179  77.3840 0001305  85.7851 274.3290 15.08843127 87527,6917.871,95.437,540.639,538.833,0.0
51741.0,STARLINK-3520,PAYLOAD,2023-09-13 19:43:28,15.08850378,0.0001311,53.2176,74.7072,81.4868,278.6273,0.00013195,1.813e-05,0.0,0 STARLINK-3520,1 51741U 22016AD  23256.82185369  .00001813  00000-0  13195-3 0  9994,2 51741  53.2176  74.7072 0001311  81.4868 278.6273 15.08850378 86501,6917.849,95.437,540.621,538.807,0.0
51741.0,STARLINK-3520,PAYLOAD,2023-09-14 11:37:20,15.08834586,0.0001265,53.2173,71.7323,87.8969,272.2168,4.9866e-05,5.06e-06,0.0,0 STARLINK-3520,1 51741U 22016AD  23257.48426681  .00000506  00000-0  49866-4 0  9995,2 51741  53.2173  71.7323 0001265  87.8969 272.2168 15.08834586 86601,6917.897,95.438,540.637,538.887,0.0
51741.0,STARLINK-3520,PAYLOAD,2023-09-14 19:34:16,15.08838029,0.0001227,53.2177,70.2459,87.9904,272.1229,-2.623e-06,-3.3e-06,0.0,0 STARLINK-3520,1 51741U 22016AD  23257.81546688 -.00000330  00000-0 -26230-5 0  9990,2 51741  53.2177  70.2459 0001227  87.9904 272.1229 15.08838029 87768,6917.886,95.438,540.6,538.903,0.0
51741.0,STARLINK-3520,PAYLOAD,2023-09-15 05:06:34,15.08841261,0.0001242,53.2179,68.4623,87.183,272.9305,2.5705e-05,1.21e-06,0.0,0 STARLINK-3520,1 51741U 22016AD  23258.21290486  .00000121  00000-0  25705-4 0  9998,2 51741  53.2179  68.4623 0001242  87.1830 272.9305 15.08841261 86718,6917.877,95.437,540.601,538.882,0.0
